[{"OBJECT_NAME":"STARLINK-36939","OBJECT_ID":"2026-040V","EPOCH":"2026-03-28T14:00:01.999872","MEAN_MOTION":15.6596896,"ECCENTRICITY":0.00019321,"INCLINATION":97.2856,"RA_OF_ASC_NODE":36.9791,"ARG_OF_PERICENTER":105.4605,"MEAN_ANOMALY":133.8889,"EPHEMERIS_TYPE":0,"CLASSIFICATION_TYPE":"U","NORAD_CAT_ID":68034,"ELEMENT_SET_NO":999,"REV_AT_EPOCH":546,"BSTAR":-0.021827558,"MEAN_MOTION_DOT":-0.01961762,"MEAN_MOTION_DDOT":0},{"OBJECT_NAME":"STARLINK-36943","OBJECT_ID":"2026-040W","EPOCH":"2026-03-28T14:19:57.706752","MEAN_MOTION":15.75267044,"ECCENTRICITY":0.00026006,"INCLINATION":97.2852,"RA_OF_ASC_NODE":37.0125,"ARG_OF_PERICENTER":65.9211,"MEAN_ANOMALY":294.2326,"EPHEMERIS_TYPE":0,"CLASSIFICATION_TYPE":"U","NORAD_CAT_ID":68035,"ELEMENT_SET_NO":999,"REV_AT_EPOCH":546,"BSTAR":0.0022862989,"MEAN_MOTION_DOT":0.00356715,"MEAN_MOTION_DDOT":0},{"OBJECT_NAME":"STARLINK-36906","OBJECT_ID":"2026-040X","EPOCH":"2026-03-28T20:00:01.999008","MEAN_MOTION":15.63480785,"ECCENTRICITY":0.0002057,"INCLINATION":97.2847,"RA_OF_ASC_NODE":37.2303,"ARG_OF_PERICENTER":96.3553,"MEAN_ANOMALY":93.6124,"EPHEMERIS_TYPE":0,"CLASSIFICATION_TYPE":"U","NORAD_CAT_ID":68036,"ELEMENT_SET_NO":999,"REV_AT_EPOCH":550,"BSTAR":-0.023517,"MEAN_MOTION_DOT":-0.01919487,"MEAN_MOTION_DDOT":0},{"OBJECT_NAME":"STARLINK-36388","OBJECT_ID":"2026-040Y","EPOCH":"2026-03-28T08:14:32.885088","MEAN_MOTION":15.75192231,"ECCENTRICITY":0.0002666,"INCLINATION":97.2863,"RA_OF_ASC_NODE":36.7428,"ARG_OF_PERICENTER":73.5208,"MEAN_ANOMALY":286.635,"EPHEMERIS_TYPE":0,"CLASSIFICATION_TYPE":"U","NORAD_CAT_ID":68037,"ELEMENT_SET_NO":999,"REV_AT_EPOCH":429,"BSTAR":0.0014008,"MEAN_MOTION_DOT":0.00214176,"MEAN_MOTION_DDOT":0},{"OBJECT_NAME":"STARLINK-36895","OBJECT_ID":"2026-040Z","EPOCH":"2026-03-28T20:00:01.999008","MEAN_MOTION":15.7516806,"ECCENTRICITY":0.0001496,"INCLINATION":97.2866,"RA_OF_ASC_NODE":37.2502,"ARG_OF_PERICENTER":82.7778,"MEAN_ANOMALY":161.6518,"EPHEMERIS_TYPE":0,"CLASSIFICATION_TYPE":"U","NORAD_CAT_ID":68038,"ELEMENT_SET_NO":999,"REV_AT_EPOCH":550,"BSTAR":0.00019038,"MEAN_MOTION_DOT":0.00028334,"MEAN_MOTION_DDOT":0},{"OBJECT_NAME":"STARLINK-36373","OBJECT_ID":"2026-040AA","EPOCH":"2026-03-28T20:00:01.999008","MEAN_MOTION":15.62743299,"ECCENTRICITY":0.0002089,"INCLINATION":97.285,"RA_OF_ASC_NODE":37.2235,"ARG_OF_PERICENTER":93.6393,"MEAN_ANOMALY":80.7538,"EPHEMERIS_TYPE":0,"CLASSIFICATION_TYPE":"U","NORAD_CAT_ID":68039,"ELEMENT_SET_NO":999,"REV_AT_EPOCH":545,"BSTAR":-0.024097,"MEAN_MOTION_DOT":-0.01911637,"MEAN_MOTION_DDOT":0},{"OBJECT_NAME":"STARLINK-36711","OBJECT_ID":"2026-041A","EPOCH":"2026-03-27T23:29:26.801088","MEAN_MOTION":15.75330431,"ECCENTRICITY":0.00011038,"INCLINATION":53.1584,"RA_OF_ASC_NODE":331.0342,"ARG_OF_PERICENTER":48.3262,"MEAN_ANOMALY":311.7853,"EPHEMERIS_TYPE":0,"CLASSIFICATION_TYPE":"U","NORAD_CAT_ID":68040,"ELEMENT_SET_NO":999,"REV_AT_EPOCH":410,"BSTAR":0.001773546,"MEAN_MOTION_DOT":0.00281592,"MEAN_MOTION_DDOT":0},{"OBJECT_NAME":"STARLINK-36825","OBJECT_ID":"2026-041B","EPOCH":"2026-03-28T21:05:00.606336","MEAN_MOTION":15.80924285,"ECCENTRICITY":9.55e-5,"INCLINATION":53.1587,"RA_OF_ASC_NODE":325.9577,"ARG_OF_PERICENTER":130.4998,"MEAN_ANOMALY":229.6108,"EPHEMERIS_TYPE":0,"CLASSIFICATION_TYPE":"U","NORAD_CAT_ID":68041,"ELEMENT_SET_NO":999,"REV_AT_EPOCH":425,"BSTAR":0.00091562,"MEAN_MOTION_DOT":0.0018436,"MEAN_MOTION_DDOT":0},{"OBJECT_NAME":"STARLINK-36925","OBJECT_ID":"2026-041C","EPOCH":"2026-03-28T20:48:30.535776","MEAN_MOTION":15.76218484,"ECCENTRICITY":0.0002615,"INCLINATION":53.1574,"RA_OF_ASC_NODE":326.6189,"ARG_OF_PERICENTER":254.5119,"MEAN_ANOMALY":105.5613,"EPHEMERIS_TYPE":0,"CLASSIFICATION_TYPE":"U","NORAD_CAT_ID":68042,"ELEMENT_SET_NO":999,"REV_AT_EPOCH":424,"BSTAR":0.0029864,"MEAN_MOTION_DOT":0.00506868,"MEAN_MOTION_DDOT":0},{"OBJECT_NAME":"STARLINK-36902","OBJECT_ID":"2026-041D","EPOCH":"2026-03-28T20:00:01.999008","MEAN_MOTION":15.75291668,"ECCENTRICITY":0.0001045,"INCLINATION":53.1594,"RA_OF_ASC_NODE":326.2602,"ARG_OF_PERICENTER":104.0355,"MEAN_ANOMALY":322.5518,"EPHEMERIS_TYPE":0,"CLASSIFICATION_TYPE":"U","NORAD_CAT_ID":68043,"ELEMENT_SET_NO":999,"REV_AT_EPOCH":545,"BSTAR":-0.00077415,"MEAN_MOTION_DOT":-0.00117937,"MEAN_MOTION_DDOT":0},{"OBJECT_NAME":"STARLINK-36966","OBJECT_ID":"2026-041E","EPOCH":"2026-03-28T20:42:27.346464","MEAN_MOTION":15.75503583,"ECCENTRICITY":4.27e-5,"INCLINATION":53.1592,"RA_OF_ASC_NODE":326.5916,"ARG_OF_PERICENTER":304.1729,"MEAN_ANOMALY":55.925,"EPHEMERIS_TYPE":0,"CLASSIFICATION_TYPE":"U","NORAD_CAT_ID":68044,"ELEMENT_SET_NO":999,"REV_AT_EPOCH":424,"BSTAR":0.0028723,"MEAN_MOTION_DOT":0.00470494,"MEAN_MOTION_DDOT":0},{"OBJECT_NAME":"STARLINK-36864","OBJECT_ID":"2026-041F","EPOCH":"2026-03-28T17:39:14.321088","MEAN_MOTION":15.75486828,"ECCENTRICITY":8.7e-6,"INCLINATION":53.1592,"RA_OF_ASC_NODE":327.2199,"ARG_OF_PERICENTER":211.3366,"MEAN_ANOMALY":148.7649,"EPHEMERIS_TYPE":0,"CLASSIFICATION_TYPE":"U","NORAD_CAT_ID":68045,"ELEMENT_SET_NO":999,"REV_AT_EPOCH":422,"BSTAR":0.0030046,"MEAN_MOTION_DOT":0.00493202,"MEAN_MOTION_DDOT":0},{"OBJECT_NAME":"STARLINK-36321","OBJECT_ID":"2026-041G","EPOCH":"2026-03-28T20:02:45.775392","MEAN_MOTION":15.75307249,"ECCENTRICITY":0.0001206,"INCLINATION":53.1585,"RA_OF_ASC_NODE":326.4078,"ARG_OF_PERICENTER":36.5325,"MEAN_ANOMALY":323.5778,"EPHEMERIS_TYPE":0,"CLASSIFICATION_TYPE":"U","NORAD_CAT_ID":68046,"ELEMENT_SET_NO":999,"REV_AT_EPOCH":424,"BSTAR":0.0017987,"MEAN_MOTION_DOT":0.00285441,"MEAN_MOTION_DDOT":0},{"OBJECT_NAME":"STARLINK-36181","OBJECT_ID":"2026-041H","EPOCH":"2026-03-28T20:00:01.999008","MEAN_MOTION":15.75302189,"ECCENTRICITY":0.0001004,"INCLINATION":53.159,"RA_OF_ASC_NODE":326.2071,"ARG_OF_PERICENTER":105.7982,"MEAN_ANOMALY":346.5364,"EPHEMERIS_TYPE":0,"CLASSIFICATION_TYPE":"U","NORAD_CAT_ID":68047,"ELEMENT_SET_NO":999,"REV_AT_EPOCH":533,"BSTAR":-0.00073394,"MEAN_MOTION_DOT":-0.00111972,"MEAN_MOTION_DDOT":0},{"OBJECT_NAME":"STARLINK-36318","OBJECT_ID":"2026-041J","EPOCH":"2026-03-28T20:35:55.047264","MEAN_MOTION":15.75263512,"ECCENTRICITY":9.05e-5,"INCLINATION":53.1596,"RA_OF_ASC_NODE":326.5614,"ARG_OF_PERICENTER":74.2404,"MEAN_ANOMALY":285.8716,"EPHEMERIS_TYPE":0,"CLASSIFICATION_TYPE":"U","NORAD_CAT_ID":68048,"ELEMENT_SET_NO":999,"REV_AT_EPOCH":424,"BSTAR":0.0019854,"MEAN_MOTION_DOT":0.00315684,"MEAN_MOTION_DDOT":0},{"OBJECT_NAME":"STARLINK-36885","OBJECT_ID":"2026-041K","EPOCH":"2026-03-28T16:01:21.167040","MEAN_MOTION":15.75472133,"ECCENTRICITY":9.04e-5,"INCLINATION":53.1607,"RA_OF_ASC_NODE":327.5041,"ARG_OF_PERICENTER":283.8681,"MEAN_ANOMALY":76.2239,"EPHEMERIS_TYPE":0,"CLASSIFICATION_TYPE":"U","NORAD_CAT_ID":68049,"ELEMENT_SET_NO":999,"REV_AT_EPOCH":421,"BSTAR":0.0028815,"MEAN_MOTION_DOT":0.0047137,"MEAN_MOTION_DDOT":0}]
